sat02432
1 02432U 63049G   20046.66345487  .00000023  00000-0  21926-4 0  9997
2 02432  89.9018  91.8954 0036517  58.2616  54.9842 13.47834695761482
